OBJECT_NAME,OBJECT_ID,EPOCH,MEAN_MOTION,ECCENTRICITY,INCLINATION,RA_OF_ASC_NODE,ARG_OF_PERICENTER,MEAN_ANOMALY,EPHEMERIS_TYPE,CLASSIFICATION_TYPE,NORAD_CAT_ID,ELEMENT_SET_NO,REV_AT_EPOCH,BSTAR,MEAN_MOTION_DOT,MEAN_MOTION_DDOT
STARLINK-31567,2024-045X,2026-06-08T02:56:12.182208,15.27572449,.0001043,43.0032,301.6796,286.0490,74.0246,0,U,59199,999,12699,-.9625028E-5,-.527E-5,0
STARLINK-31503,2024-045Y,2026-06-08T15:34:59.500128,15.27587761,.0002572,43.0016,298.7494,262.4318,97.6242,0,U,59200,999,12707,.38516E-3,.10354E-3,0
STARLINK-31603,2024-046A,2026-06-08T12:42:46.912896,15.30140248,.0001399,53.1606,93.6766,85.9185,274.1975,0,U,59201,999,12695,.35277E-3,.10084E-3,0
STARLINK-31577,2024-046C,2026-06-08T20:00:03.000384,15.34360242,.000126,53.1591,90.2888,95.0838,63.9319,0,U,59203,999,592,.6838E-3,.22768E-3,0
STARLINK-31522,2024-046D,2026-06-08T12:39:42.346080,15.30209812,.0001113,53.1609,93.6630,85.8692,274.2436,0,U,59204,999,12695,-.17694E-3,-.5597E-4,0
STARLINK-31586,2024-046E,2026-06-08T02:38:55.419360,15.30198368,.00011363,53.1599,95.3247,92.2607,267.8524,0,U,59205,999,12689,-.33926033E-4,-.1364E-4,0
STARLINK-31247,2024-046F,2026-06-08T12:23:00.004128,15.30203168,.0001319,53.1604,93.5867,103.5615,256.5532,0,U,59206,999,12695,.65901E-4,.1593E-4,0
STARLINK-31591,2024-046G,2026-06-08T12:09:05.228064,15.34386504,.0001185,53.1608,92.1215,98.7009,261.4128,0,U,59207,999,12697,.29571E-4,.623E-5,0
STARLINK-31576,2024-046H,2026-06-08T12:15:08.674848,15.34379666,.0001479,53.1603,92.1431,101.9336,258.1833,0,U,59208,999,12697,.10889E-3,.3302E-4,0
STARLINK-31601,2024-046J,2026-06-08T02:16:00.388416,15.34386102,.00011892,53.1595,93.8104,79.6850,280.4287,0,U,59209,999,12691,.1209799E-5,-.335E-5,0
STARLINK-31520,2024-046K,2026-06-08T12:18:28.105056,15.30129117,.0001713,53.1602,93.5682,108.4077,251.7110,0,U,59210,999,12695,.45961E-3,.13248E-3,0
STARLINK-31496,2024-046L,2026-06-08T12:19:08.524704,15.30231548,.0001183,53.1612,80.7968,86.9006,273.2130,0,U,59211,999,12712,-.31076E-3,-.956E-4,0
STARLINK-31492,2024-046M,2026-06-08T12:45:47.229696,15.30203883,.0000222,53.1609,93.6801,92.1046,267.9980,0,U,59212,999,12694,-.66792E-4,-.2336E-4,0
STARLINK-31517,2024-046N,2026-06-08T12:18:10.036224,15.34396044,.0001307,53.1615,92.1819,97.6124,262.5027,0,U,59213,999,12696,.348E-4,.8E-5,0
STARLINK-31604,2024-046P,2026-06-08T12:12:06.103008,15.34396248,.0001473,53.1602,92.1259,83.4662,276.6508,0,U,59214,999,12696,.43465E-4,.1092E-4,0
STARLINK-31417,2024-046R,2026-06-08T12:44:16.793952,15.30187389,.0001266,53.1613,93.6815,95.9602,264.1544,0,U,59216,999,12682,.10054E-4,-.61E-6,0
STARLINK-31499,2024-046S,2026-06-08T02:31:09.065856,15.34393308,.0001224,53.1610,93.8745,76.0729,284.0409,0,U,59217,999,12690,-.18718E-7,-.377E-5,0
STARLINK-31421,2024-046T,2026-06-08T02:19:02.352864,15.34400224,.00010525,53.1598,93.8468,76.9896,283.1224,0,U,59218,999,12690,-.91886542E-4,-.3479E-4,0
STARLINK-31518,2024-046U,2026-06-08T02:37:12.813312,15.34387076,.00011068,53.1612,93.9070,106.1991,253.9133,0,U,59219,999,12690,.22824602E-4,.395E-5,0
STARLINK-31523,2024-046V,2026-06-08T12:21:10.588032,15.34405822,.0000787,53.1602,92.1651,93.7656,266.3436,0,U,59220,999,12696,.22249E-4,.376E-5,0
STARLINK-31516,2024-046W,2026-06-08T02:25:05.499840,15.34395828,.00013346,53.1615,93.8485,89.6547,270.4608,0,U,59221,999,12690,-.73064138E-4,-.2844E-4,0
STARLINK-31490,2024-046X,2026-06-08T03:16:55.695072,15.30193173,.00011851,53.1618,95.4814,98.5282,261.5854,0,U,59222,999,12688,-.11787125E-3,-.3848E-4,0
STARLINK-31420,2024-046Y,2026-06-08T12:36:40.915584,15.30199894,.0001604,53.1617,93.6422,84.2678,275.8506,0,U,59223,999,12694,.31864E-4,.584E-5,0
STARLINK-31305,2024-049B,2026-06-08T19:22:10.116192,15.27578707,.0001812,43.0068,348.7352,269.5095,90.5549,0,U,59232,999,12632,.64182E-4,.1504E-4,0
STARLINK-31459,2024-049C,2026-06-08T19:44:22.208064,15.27579163,.0001789,43.0010,348.8672,284.4271,75.6382,0,U,59233,999,12633,.73321E-6,-.242E-5,0
STARLINK-31438,2024-049D,2026-06-07T19:03:48.487680,15.27579367,.0001969,43.0018,343.6675,119.6495,240.4553,0,U,59234,999,12630,-.2110088E-5,-.321E-5,0
STARLINK-31467,2024-049E,2026-06-08T19:40:40.476288,15.27576686,.0000996,43.0047,348.8495,264.0590,96.0148,0,U,59235,999,12634,.29599E-4,.552E-5,0
STARLINK-31444,2024-049F,2026-06-07T15:17:50.705952,15.34420036,.00041,42.9883,282.3902,314.8524,45.1997,0,U,59236,999,12697,.23370331E-3,.7686E-4,0
