STARLINK-31567          
1 59199U 24045X   26159.12236322 -.00000527  00000+0 -96250-5 0  9994
2 59199  43.0032 301.6796 0001043 286.0490  74.0246 15.27572449126992
STARLINK-31503          
1 59200U 24045Y   26159.64929977  .00010354  00000+0  38516-3 0  9995
2 59200  43.0016 298.7494 0002572 262.4318  97.6242 15.27587761127073
STARLINK-31603          
1 59201U 24046A   26159.52970965  .00010084  00000+0  35277-3 0  9998
2 59201  53.1606  93.6766 0001399  85.9185 274.1975 15.30140248126951
STARLINK-31577          
1 59203U 24046C   26159.83336806  .00022768  00000+0  68380-3 0  9997
2 59203  53.1591  90.2888 0001260  95.0838  63.9319 15.34360242  5929
STARLINK-31522          
1 59204U 24046D   26159.52757346 -.00005597  00000+0 -17694-3 0  9995
2 59204  53.1609  93.6630 0001113  85.8692 274.2436 15.30209812126959
STARLINK-31586          
1 59205U 24046E   26159.11036365 -.00001364  00000+0 -33926-4 0  9997
2 59205  53.1599  95.3247 0001136  92.2607 267.8524 15.30198368126896
STARLINK-31247          
1 59206U 24046F   26159.51597228  .00001593  00000+0  65901-4 0  9992
2 59206  53.1604  93.5867 0001318 103.5615 256.5532 15.30203168126955
STARLINK-31591          
1 59207U 24046G   26159.50631052  .00000623  00000+0  29571-4 0  9992
2 59207  53.1608  92.1215 0001185  98.7009 261.4128 15.34386504126974
STARLINK-31576          
1 59208U 24046H   26159.51051708  .00003302  00000+0  10889-3 0  9996
2 59208  53.1603  92.1431 0001479 101.9336 258.1833 15.34379666126973
STARLINK-31601          
1 59209U 24046J   26159.09444894 -.00000335  00000+0  12098-5 0  9992
2 59209  53.1595  93.8104 0001189  79.6850 280.4287 15.34386102126917
STARLINK-31520          
1 59210U 24046K   26159.51282529  .00013248  00000+0  45961-3 0  9995
2 59210  53.1602  93.5682 0001712 108.4077 251.7110 15.30129117126957
STARLINK-31496          
1 59211U 24046L   26159.51329312 -.00009560  00000+0 -31076-3 0  9994
2 59211  53.1612  80.7968 0001183  86.9006 273.2130 15.30231548127121
STARLINK-31492          
1 59212U 24046M   26159.53179665 -.00002336  00000+0 -66792-4 0  9999
2 59212  53.1609  93.6801 0000222  92.1046 267.9980 15.30203883126946
STARLINK-31517          
1 59213U 24046N   26159.51261616  .00000800  00000+0  34800-4 0  9993
2 59213  53.1615  92.1819 0001307  97.6124 262.5027 15.34396044126960
STARLINK-31604          
1 59214U 24046P   26159.50840398  .00001092  00000+0  43465-4 0  9994
2 59214  53.1602  92.1259 0001473  83.4662 276.6508 15.34396248126965
STARLINK-31417          
1 59216U 24046R   26159.53074994 -.00000061  00000+0  10054-4 0  9994
2 59216  53.1613  93.6815 0001266  95.9602 264.1544 15.30187390126824
STARLINK-31499          
1 59217U 24046S   26159.10496604 -.00000377  00000+0 -18718-7 0  9993
2 59217  53.1610  93.8745 0001224  76.0729 284.0409 15.34393308126902
STARLINK-31421          
1 59218U 24046T   26159.09655501 -.00003479  00000+0 -91887-4 0  9996
2 59218  53.1598  93.8468 0001052  76.9896 283.1224 15.34400224126904
STARLINK-31518          
1 59219U 24046U   26159.10917608  .00000395  00000+0  22825-4 0  9996
2 59219  53.1612  93.9070 0001106 106.1991 253.9133 15.34387076126907
STARLINK-31523          
1 59220U 24046V   26159.51470588  .00000376  00000+0  22249-4 0  9993
2 59220  53.1602  92.1651 0000786  93.7656 266.3436 15.34405822126966
STARLINK-31516          
1 59221U 24046W   26159.10075810 -.00002844  00000+0 -73064-4 0  9993
2 59221  53.1615  93.8485 0001334  89.6547 270.4608 15.34395828126902
STARLINK-31490          
1 59222U 24046X   26159.13675573 -.00003848  00000+0 -11787-3 0  9997
2 59222  53.1618  95.4814 0001185  98.5282 261.5854 15.30193173126885
STARLINK-31420          
1 59223U 24046Y   26159.52547357  .00000584  00000+0  31864-4 0  9990
2 59223  53.1617  93.6422 0001604  84.2678 275.8506 15.30199894126942
STARLINK-31305          
1 59232U 24049B   26159.80706153  .00001504  00000+0  64182-4 0  9997
2 59232  43.0068 348.7352 0001812 269.5095  90.5549 15.27578707126329
STARLINK-31459          
1 59233U 24049C   26159.82247926 -.00000242  00000+0  73321-6 0  9994
2 59233  43.0010 348.8672 0001789 284.4271  75.6382 15.27579163126335
STARLINK-31438          
1 59234U 24049D   26158.79431120 -.00000321  00000+0 -21101-5 0  9998
2 59234  43.0018 343.6675 0001969 119.6495 240.4553 15.27579367126302
STARLINK-31467          
1 59235U 24049E   26159.81991292  .00000552  00000+0  29599-4 0  9996
2 59235  43.0047 348.8495 0000996 264.0590  96.0148 15.27576686126342
STARLINK-31444          
1 59236U 24049F   26158.63739243  .00007686  00000+0  23370-3 0  9997
2 59236  42.9883 282.3902 0004100 314.8524  45.1997 15.34420036126977
